CTC1_L_00025001-01
1 10000U 25503BO  26075.70028935  .00000000  00000+0  00000-0 0  9999
2 10000  95.0000   0.0000 0000000   0.0000   0.0000 15.80155680    17
CTC1_L_00025001-02
1 10001U 25948XO  26075.70028935  .00000000  00000+0  00000-0 0  9993
2 10001  95.0000   0.0000 0000000   0.0000  90.0000 15.80155680    17
CTC1_L_00025001-03
1 10002U 24703XX  26075.70028935  .00000000  00000+0  00000-0 0  9992
2 10002  95.0000   0.0000 0000000   0.0000 180.0000 15.80155680    18
CTC1_L_00025001-04
1 10003U 24060XE  26075.70028935  .00000000  00000+0  00000-0 0  9999
2 10003  95.0000   0.0000 0000000   0.0000 270.0000 15.80155680    19
CTC1_L_00025002-01
1 10004U 24819PH  26075.70028935  .00000000  00000+0  00000-0 0  9992
2 10004  95.0000  12.0000 0000000   0.0000  12.0000 15.80155680    17
CTC1_L_00025002-02
1 10005U 26483EQ  26075.70028935  .00000000  00000+0  00000-0 0  9992
2 10005  95.0000  12.0000 0000000   0.0000 102.0000 15.80155680    18
CTC1_L_00025002-03
1 10006U 23001PY  26075.70028935  .00000000  00000+0  00000-0 0  9996
2 10006  95.0000  12.0000 0000000   0.0000 192.0000 15.80155680    18
CTC1_L_00025002-04
1 10007U 24110ZQ  26075.70028935  .00000000  00000+0  00000-0 0  9999
2 10007  95.0000  12.0000 0000000   0.0000 282.0000 15.80155680    19
CTC1_L_00025003-01
1 10008U 26604KT  26075.70028935  .00000000  00000+0  00000-0 0  9990
2 10008  95.0000  24.0000 0000000   0.0000  24.0000 15.80155680    17
CTC1_L_00025003-02
1 10009U 24985IQ  26075.70028935  .00000000  00000+0  00000-0 0  9991
2 10009  95.0000  24.0000 0000000   0.0000 114.0000 15.80155680    18
CTC1_L_00025003-03
1 10010U 26416TY  26075.70028935  .00000000  00000+0  00000-0 0  9994
2 10010  95.0000  24.0000 0000000   0.0000 204.0000 15.80155680    10
CTC1_L_00025003-04
1 10011U 22163HW  26075.70028935  .00000000  00000+0  00000-0 0  9990
2 10011  95.0000  24.0000 0000000   0.0000 294.0000 15.80155680    10
CTC1_L_00025004-01
1 10012U 26359ZK  26075.70028935  .00000000  00000+0  00000-0 0  9992
2 10012  95.0000  36.0000 0000000   0.0000  36.0000 15.80155680    18
CTC1_L_00025004-02
1 10013U 26106YG  26075.70028935  .00000000  00000+0  00000-0 0  9993
2 10013  95.0000  36.0000 0000000   0.0000 126.0000 15.80155680    19
CTC1_L_00025004-03
1 10014U 24591IM  26075.70028935  .00000000  00000+0  00000-0 0  9990
2 10014  95.0000  36.0000 0000000   0.0000 216.0000 15.80155680    10
CTC1_L_00025004-04
1 10015U 24420HR  26075.70028935  .00000000  00000+0  00000-0 0  9992
2 10015  95.0000  36.0000 0000000   0.0000 306.0000 15.80155680    11
CTC1_L_00025005-01
1 10016U 22996HM  26075.70028935  .00000000  00000+0  00000-0 0  9999
2 10016  95.0000  48.0000 0000000   0.0000  48.0000 15.80155680    18
CTC1_L_00025005-02
1 10017U 24214EH  26075.70028935  .00000000  00000+0  00000-0 0  9995
2 10017  95.0000  48.0000 0000000   0.0000 138.0000 15.80155680    19
CTC1_L_00025005-03
1 10018U 25575BD  26075.70028935  .00000000  00000+0  00000-0 0  9997
2 10018  95.0000  48.0000 0000000   0.0000 228.0000 15.80155680    10
CTC1_L_00025005-04
1 10019U 26389XH  26075.70028935  .00000000  00000+0  00000-0 0  9992
2 10019  95.0000  48.0000 0000000   0.0000 318.0000 15.80155680    11
CTC1_L_00025006-01
1 10020U 23931SK  26075.70028935  .00000000  00000+0  00000-0 0  9994
2 10020  95.0000  60.0000 0000000   0.0000  60.0000 15.80155680    11
CTC1_L_00025006-02
1 10021U 24209MZ  26075.70028935  .00000000  00000+0  00000-0 0  9994
2 10021  95.0000  60.0000 0000000   0.0000 150.0000 15.80155680    12
CTC1_L_00025006-03
1 10022U 23461QC  26075.70028935  .00000000  00000+0  00000-0 0  9994
2 10022  95.0000  60.0000 0000000   0.0000 240.0000 15.80155680    13
CTC1_L_00025006-04
1 10023U 25496TY  26075.70028935  .00000000  00000+0  00000-0 0  9995
2 10023  95.0000  60.0000 0000000   0.0000 330.0000 15.80155680    14
CTC1_L_00025007-01
1 10024U 22111KW  26075.70028935  .00000000  00000+0  00000-0 0  9997
2 10024  95.0000  72.0000 0000000   0.0000  72.0000 15.80155680    11
CTC1_L_00025007-02
1 10025U 25142YZ  26075.70028935  .00000000  00000+0  00000-0 0  9995
2 10025  95.0000  72.0000 0000000   0.0000 162.0000 15.80155680    12
CTC1_L_00025007-03
1 10026U 26106FD  26075.70028935  .00000000  00000+0  00000-0 0  9997
2 10026  95.0000  72.0000 0000000   0.0000 252.0000 15.80155680    13
CTC1_L_00025007-04
1 10027U 22053QN  26075.70028935  .00000000  00000+0  00000-0 0  9995
2 10027  95.0000  72.0000 0000000   0.0000 342.0000 15.80155680    14
CTC1_L_00025008-01
1 10028U 26073IA  26075.70028935  .00000000  00000+0  00000-0 0  9992
2 10028  95.0000  84.0000 0000000   0.0000  84.0000 15.80155680    11
CTC1_L_00025008-02
1 10029U 23190ZR  26075.70028935  .00000000  00000+0  00000-0 0  9990
2 10029  95.0000  84.0000 0000000   0.0000 174.0000 15.80155680    12
CTC1_L_00025008-03
1 10030U 24064UP  26075.70028935  .00000000  00000+0  00000-0 0  9993
2 10030  95.0000  84.0000 0000000   0.0000 264.0000 15.80155680    14
CTC1_L_00025008-04
1 10031U 22326RZ  26075.70028935  .00000000  00000+0  00000-0 0  9993
2 10031  95.0000  84.0000 0000000   0.0000 354.0000 15.80155680    15
CTC1_L_00025009-01
1 10032U 26475PP  26075.70028935  .00000000  00000+0  00000-0 0  9993
2 10032  95.0000  96.0000 0000000   0.0000  96.0000 15.80155680    12
CTC1_L_00025009-02
1 10033U 24209KG  26075.70028935  .00000000  00000+0  00000-0 0  9997
2 10033  95.0000  96.0000 0000000   0.0000 186.0000 15.80155680    13
CTC1_L_00025009-03
1 10034U 25415UN  26075.70028935  .00000000  00000+0  00000-0 0  9998
2 10034  95.0000  96.0000 0000000   0.0000 276.0000 15.80155680    14
CTC1_L_00025009-04
1 10035U 22822RG  26075.70028935  .00000000  00000+0  00000-0 0  9998
2 10035  95.0000  96.0000 0000000   0.0000   6.0000 15.80155680    16
CTC1_L_00025010-01
1 10036U 26119CZ  26075.70028935  .00000000  00000+0  00000-0 0  9992
2 10036  95.0000 108.0000 0000000   0.0000 108.0000 15.80155680    14
CTC1_L_00025010-02
1 10037U 24611IH  26075.70028935  .00000000  00000+0  00000-0 0  9998
2 10037  95.0000 108.0000 0000000   0.0000 198.0000 15.80155680    14
CTC1_L_00025010-03
1 10038U 25646UH  26075.70028935  .00000000  00000+0  00000-0 0  9998
2 10038  95.0000 108.0000 0000000   0.0000 288.0000 15.80155680    15
CTC1_L_00025010-04
1 10039U 23752AF  26075.70028935  .00000000  00000+0  00000-0 0  9995
2 10039  95.0000 108.0000 0000000   0.0000  18.0000 15.80155680    17
CTC1_L_00025011-01
1 10040U 24960FR  26075.70028935  .00000000  00000+0  00000-0 0  9999
2 10040  95.0000 120.0000 0000000   0.0000 120.0000 15.80155680    17
CTC1_L_00025011-02
1 10041U 25276BQ  26075.70028935  .00000000  00000+0  00000-0 0  9991
2 10041  95.0000 120.0000 0000000   0.0000 210.0000 15.80155680    18
CTC1_L_00025011-03
1 10042U 26124OY  26075.70028935  .00000000  00000+0  00000-0 0  9995
2 10042  95.0000 120.0000 0000000   0.0000 300.0000 15.80155680    19
CTC1_L_00025011-04
1 10043U 26458RF  26075.70028935  .00000000  00000+0  00000-0 0  9996
2 10043  95.0000 120.0000 0000000   0.0000  30.0000 15.80155680    10
CTC1_L_00025012-01
1 10044U 26900GH  26075.70028935  .00000000  00000+0  00000-0 0  9999
2 10044  95.0000 132.0000 0000000   0.0000 132.0000 15.80155680    17
CTC1_L_00025012-02
1 10045U 26539VT  26075.70028935  .00000000  00000+0  00000-0 0  9998
2 10045  95.0000 132.0000 0000000   0.0000 222.0000 15.80155680    18
CTC1_L_00025012-03
1 10046U 26905M   26075.70028935  .00000000  00000+0  00000-0 0  9996
2 10046  95.0000 132.0000 0000000   0.0000 312.0000 15.80155680    19
CTC1_L_00025012-04
1 10047U 23744MI  26075.70028935  .00000000  00000+0  00000-0 0  9995
2 10047  95.0000 132.0000 0000000   0.0000  42.0000 15.80155680    10
CTC1_L_00025013-01
1 10048U 22590OX  26075.70028935  .00000000  00000+0  00000-0 0  9994
2 10048  95.0000 144.0000 0000000   0.0000 144.0000 15.80155680    17
CTC1_L_00025013-02
1 10049U 22248BJ  26075.70028935  .00000000  00000+0  00000-0 0  9995
2 10049  95.0000 144.0000 0000000   0.0000 234.0000 15.80155680    18
CTC1_L_00025013-03
1 10050U 24016Z   26075.70028935  .00000000  00000+0  00000-0 0  9992
2 10050  95.0000 144.0000 0000000   0.0000 324.0000 15.80155680    10
CTC1_L_00025013-04
1 10051U 26518MI  26075.70028935  .00000000  00000+0  00000-0 0  9992
2 10051  95.0000 144.0000 0000000   0.0000  54.0000 15.80155680    11
CTC1_L_00025014-01
1 10052U 25767UC  26075.70028935  .00000000  00000+0  00000-0 0  9998
2 10052  95.0000 156.0000 0000000   0.0000 156.0000 15.80155680    18
CTC1_L_00025014-02
1 10053U 23746FA  26075.70028935  .00000000  00000+0  00000-0 0  9994
2 10053  95.0000 156.0000 0000000   0.0000 246.0000 15.80155680    19
CTC1_L_00025014-03
1 10054U 26088XX  26075.70028935  .00000000  00000+0  00000-0 0  9997
2 10054  95.0000 156.0000 0000000   0.0000 336.0000 15.80155680    10
CTC1_L_00025014-04
1 10055U 22490BQ  26075.70028935  .00000000  00000+0  00000-0 0  9991
2 10055  95.0000 156.0000 0000000   0.0000  66.0000 15.80155680    11
CTC1_L_00025015-01
1 10056U 24481EY  26075.70028935  .00000000  00000+0  00000-0 0  9994
2 10056  95.0000 168.0000 0000000   0.0000 168.0000 15.80155680    18
CTC1_L_00025015-02
1 10057U 26694AT  26075.70028935  .00000000  00000+0  00000-0 0  9993
2 10057  95.0000 168.0000 0000000   0.0000 258.0000 15.80155680    19
CTC1_L_00025015-03
1 10058U 23176TU  26075.70028935  .00000000  00000+0  00000-0 0  9996
2 10058  95.0000 168.0000 0000000   0.0000 348.0000 15.80155680    10
CTC1_L_00025015-04
1 10059U 24709AL  26075.70028935  .00000000  00000+0  00000-0 0  9990
2 10059  95.0000 168.0000 0000000   0.0000  78.0000 15.80155680    11
CTC1_L_00025016-01
1 10060U 25518HS  26075.70028935  .00000000  00000+0  00000-0 0  9991
2 10060  95.0000 180.0000 0000000   0.0000 180.0000 15.80155680    11
CTC1_L_00025016-02
1 10061U 26965RJ  26075.70028935  .00000000  00000+0  00000-0 0  9999
2 10061  95.0000 180.0000 0000000   0.0000 270.0000 15.80155680    12
